#aV2009  4  2  0  0   .00000000      96 DD+AD WGS84 FIT  NGA
## 1525 345600.00000000   900.00000000 54923  .0000000000000
+   31     2  3  4  5  6  7  8  9 10 11 12 13 14 15 16 17 18
+         19 20 21 22 23 24 25 26 27 28 29 30 31 32  0  0  0
+          0  0  0  0  0  0  0  0  0  0  0  0  0  0  0  0  0
+          0  0  0  0  0  0  0  0  0  0  0  0  0  0  0  0  0
+          0  0  0  0  0  0  0  0  0  0  0  0  0  0  0  0  0
++         0  0  0  0  0  0  0  0  0  0  0  0  0  0  0  0  0
++         0  0  0  0  0  0  0  0  0  0  0  0  0  0  0  0  0
++         0  0  0  0  0  0  0  0  0  0  0  0  0  0  0  0  0
++         0  0  0  0  0  0  0  0  0  0  0  0  0  0  0  0  0
++         0  0  0  0  0  0  0  0  0  0  0  0  0  0  0  0  0
%c cc cc ccc ccc cccc cccc cccc cccc ccccc ccccc ccccc ccccc
%c cc cc ccc ccc cccc cccc cccc cccc ccccc ccccc ccccc ccccc
%f  0.0000000  0.000000000  0.00000000000  0.000000000000000
%f  0.0000000  0.000000000  0.00000000000  0.000000000000000
%i    0    0    0    0      0      0      0      0         0
%i    0    0    0    0      0      0      0      0         0
/*      NGA, ST. LOUIS,MO.                                  
/*   EPHEMERIS COMPUTED FROM  3 DAYS OF DATA                
/* CCCCCCCCCCCCCCCCCCCCCCCCCCCCCCCCCCCCCCCCCCCCCCCCCCCCCCCCC
/* CCCCCCCCCCCCCCCCCCCCCCCCCCCCCCCCCCCCCCCCCCCCCCCCCCCCCCCCC
*  2009  4  2  3  0   .00000000                                                 
P  2 -20434.108715  13142.490715  10126.663471    153.905290                    
V  2 -13607.309584    196.785413 -27820.226011      -.004608                    
P  3  10029.914146 -22828.106879   8316.601754    373.760478                    
V  3   2110.294104  11618.634282  28671.625616       .052769                    
P  4 -26193.322670   5253.941968  -1725.867454    -35.492908                    
V  4   1204.277982  -3505.111893 -30973.383757      -.146573                    
P  5  12171.232504  20952.981060 -11315.140121    -22.225586                    
V  5 -12343.806561  -6935.504517 -26710.039748      -.105837                    
P  6  13781.072581 -19184.852085  12292.785236     61.188738                    
V  6   -567.827120  15665.951352  25527.646911       .179317                    
P  7 -16901.918051  -8852.421363  18505.845809     20.953181                    
V  7  22411.180086  -7129.576120  16932.332449      -.004802                    
P  8 -25443.050437   -696.137649   8385.301257   -196.622078                    
V  8  10087.624175  -3413.284689  29653.996076      -.015454                    
P  9   -773.245046  15750.641532 -22007.824256     48.562655                    
V  9 -25440.929209   7017.129748   6198.922150       .019679                    
P 10  -7307.725854  13956.581904  21172.474602    -13.656768                    
V 10 -19179.245317 -19484.454141   6509.886282      -.006276                    
P 11  -2563.839170 -17096.069558 -20314.491926      2.678729                    
V 11  23568.851645 -10410.947111   6201.338973      -.012864                    
P 12   9298.511915  21706.243470 -12199.004845   -299.279477                    
V 12 -12361.110731  -9683.071576 -26374.465329       .045708                    
P 13  -7924.204085 -16012.243323  19531.833188    293.319294                    
V 13   8873.522899 -23373.408231 -15452.981387       .010932                    
P 14  15620.576046  -3272.125680 -21088.381532   -132.091590                    
V 14  -7619.592136  25914.823404  -9716.148907       .056914                    
P 15  -6633.380280  25683.409858   -243.371220   -276.253895                    
V 15  -2988.549540   -441.368350  31702.072204      -.045086                    
P 16  12057.069221  -9178.778299  21885.170905     62.828880                    
V 16  18845.408076  20172.694719  -1695.989612      -.030610                    
P 17 -15786.385098    868.334135 -21252.444041     52.526558                    
V 17   7110.132912 -26228.794513  -6519.943749       .016143                    
P 18  20565.214667  15961.465072  -5965.319064    -69.340186                    
V 18   3079.046669   7749.922999  29894.524632       .034618                    
P 19   6870.631625 -25332.584134  -3011.911384     29.308614                    
V 19   4256.863169  -2646.942122  31535.654564      -.008894                    
P 20 -11341.977156 -21702.347052 -10471.951817     86.497549                    
V 20  11423.187786   7091.661160 -27363.024267      -.010467                    
P 21  20715.841228   7041.868444  15714.783416     21.416379                    
V 21 -18369.950215   6409.405068  21051.244816      -.019439                    
P 22  20888.147690   7003.793340 -14727.977933    202.389635                    
V 22  10919.653120  15746.604109  22672.923030      -.007004                    
P 23  -1658.833365 -23570.601069  11798.142028    389.008513                    
V 23   6396.144683 -13921.789175 -27066.453068       .003845                    
P 24   6276.704064  14395.361519  21529.945036    178.002650                    
V 24 -26446.163087   5880.483082   4061.170016       .031005                    
P 25  -9868.793237 -12286.696474  21704.478024    335.715554                    
V 25  24975.787301  -9561.461326   6235.628051       .218752                    
P 26  -6638.694989  25320.203969  -2824.663002     54.572546                    
V 26  -3011.530773   2106.743028  32547.510489       .021146                    
P 27 -18992.112184  14192.400135 -11386.399539     37.317685                    
V 27 -15376.323402   2616.806680  27261.105318       .033257                    
P 28 -21032.383818  -9725.706891 -12835.444550    -23.846914                    
V 28  -9922.917097 -13791.141798  25540.022133      -.002124                    
P 29   8165.905940  17406.624096  18447.444347      5.076609                    
V 29  -8207.753100  21743.215475 -16944.181443       .041128                    
P 30  17897.205062  19537.282824  -2783.525740    136.398499                    
V 30  -4313.269837     71.877033 -31224.812950       .025276                    
P 31  25613.806577  -7276.804856    923.017519    -56.531256                    
V 31   1466.528187   2032.870121 -31885.241237      -.010782                    
P 32  -3178.275099 -20991.709183 -15709.331107    279.932621                    
V 32  14497.573988  14720.157669 -21805.984841      -.046672                    
EOF
